CCSDS_OMM_VERS = 2.0
CREATION_DATE  = 
ORIGINATOR     = 

OBJECT_NAME    = STARLINK-36068
OBJECT_ID      = 2025-280AA
CENTER_NAME    = EARTH
REF_FRAME      = TEME
TIME_SYSTEM    = UTC
MEAN_ELEMENT_THEORY = SGP/SGP4

EPOCH          = 2025-12-28T12:21:34.030944
MEAN_MOTION    = 15.52548848
ECCENTRICITY   = .00063909
INCLINATION    = 70.0006
RA_OF_ASC_NODE = 155.1460
ARG_OF_PERICENTER = 303.1513
MEAN_ANOMALY   = 56.9060

EPHEMERIS_TYPE = 0
CLASSIFICATION_TYPE = U
NORAD_CAT_ID   = 66845
ELEMENT_SET_NO = 999
REV_AT_EPOCH   = 538
BSTAR          = .17579899E-2
MEAN_MOTION_DOT = .109666E-2
MEAN_MOTION_DDOT = 0

CCSDS_OMM_VERS = 2.0
CREATION_DATE  = 
ORIGINATOR     = 

OBJECT_NAME    = STARLINK-36055
OBJECT_ID      = 2025-280AB
CENTER_NAME    = EARTH
REF_FRAME      = TEME
TIME_SYSTEM    = UTC
MEAN_ELEMENT_THEORY = SGP/SGP4

EPOCH          = 2025-12-28T14:00:01.999872
MEAN_MOTION    = 15.46642347
ECCENTRICITY   = .00037497
INCLINATION    = 70.0011
RA_OF_ASC_NODE = 154.9781
ARG_OF_PERICENTER = 271.4611
MEAN_ANOMALY   = 92.9946

EPHEMERIS_TYPE = 0
CLASSIFICATION_TYPE = U
NORAD_CAT_ID   = 66846
ELEMENT_SET_NO = 999
REV_AT_EPOCH   = 544
BSTAR          = -.47190644E-1
MEAN_MOTION_DOT = -.2097355E-1
MEAN_MOTION_DDOT = 0

CCSDS_OMM_VERS = 2.0
CREATION_DATE  = 
ORIGINATOR     = 

OBJECT_NAME    = STARLINK-36061
OBJECT_ID      = 2025-280AC
CENTER_NAME    = EARTH
REF_FRAME      = TEME
TIME_SYSTEM    = UTC
MEAN_ELEMENT_THEORY = SGP/SGP4

EPOCH          = 2025-12-28T14:00:01.999872
MEAN_MOTION    = 15.47381717
ECCENTRICITY   = .00038017
INCLINATION    = 70.0005
RA_OF_ASC_NODE = 154.9720
ARG_OF_PERICENTER = 273.1650
MEAN_ANOMALY   = 96.4637

EPHEMERIS_TYPE = 0
CLASSIFICATION_TYPE = U
NORAD_CAT_ID   = 66847
ELEMENT_SET_NO = 999
REV_AT_EPOCH   = 539
BSTAR          = -.45971659E-1
MEAN_MOTION_DOT = -.2096627E-1
MEAN_MOTION_DDOT = 0

CCSDS_OMM_VERS = 2.0
CREATION_DATE  = 
ORIGINATOR     = 

OBJECT_NAME    = STARLINK-36091
OBJECT_ID      = 2025-281A
CENTER_NAME    = EARTH
REF_FRAME      = TEME
TIME_SYSTEM    = UTC
MEAN_ELEMENT_THEORY = SGP/SGP4

EPOCH          = 2025-12-28T14:00:01.999872
MEAN_MOTION    = 15.50555314
ECCENTRICITY   = .00012775
INCLINATION    = 43.0005
RA_OF_ASC_NODE = 27.0087
ARG_OF_PERICENTER = 276.7937
MEAN_ANOMALY   = 247.6196

EPHEMERIS_TYPE = 0
CLASSIFICATION_TYPE = U
NORAD_CAT_ID   = 66848
ELEMENT_SET_NO = 999
REV_AT_EPOCH   = 393
BSTAR          = .86378923E-4
MEAN_MOTION_DOT = .4725E-4
MEAN_MOTION_DDOT = 0

CCSDS_OMM_VERS = 2.0
CREATION_DATE  = 
ORIGINATOR     = 

OBJECT_NAME    = STARLINK-36102
OBJECT_ID      = 2025-281B
CENTER_NAME    = EARTH
REF_FRAME      = TEME
TIME_SYSTEM    = UTC
MEAN_ELEMENT_THEORY = SGP/SGP4

EPOCH          = 2025-12-28T14:00:01.999872
MEAN_MOTION    = 15.50550839
ECCENTRICITY   = .00011848
INCLINATION    = 43.0006
RA_OF_ASC_NODE = 27.0034
ARG_OF_PERICENTER = 275.5989
MEAN_ANOMALY   = 250.7311

EPHEMERIS_TYPE = 0
CLASSIFICATION_TYPE = U
NORAD_CAT_ID   = 66849
ELEMENT_SET_NO = 999
REV_AT_EPOCH   = 393
BSTAR          = .20097717E-3
MEAN_MOTION_DOT = .11454E-3
MEAN_MOTION_DDOT = 0

CCSDS_OMM_VERS = 2.0
CREATION_DATE  = 
ORIGINATOR     = 

OBJECT_NAME    = STARLINK-36105
OBJECT_ID      = 2025-281C
CENTER_NAME    = EARTH
REF_FRAME      = TEME
TIME_SYSTEM    = UTC
MEAN_ELEMENT_THEORY = SGP/SGP4

EPOCH          = 2025-12-28T14:00:01.999872
MEAN_MOTION    = 15.50547417
ECCENTRICITY   = .0001207
INCLINATION    = 43.0006
RA_OF_ASC_NODE = 26.9988
ARG_OF_PERICENTER = 277.4136
MEAN_ANOMALY   = 250.8359

EPHEMERIS_TYPE = 0
CLASSIFICATION_TYPE = U
NORAD_CAT_ID   = 66850
ELEMENT_SET_NO = 999
REV_AT_EPOCH   = 393
BSTAR          = .32291579E-3
MEAN_MOTION_DOT = .18626E-3
MEAN_MOTION_DDOT = 0

CCSDS_OMM_VERS = 2.0
CREATION_DATE  = 
ORIGINATOR     = 

OBJECT_NAME    = STARLINK-36094
OBJECT_ID      = 2025-281D
CENTER_NAME    = EARTH
REF_FRAME      = TEME
TIME_SYSTEM    = UTC
MEAN_ELEMENT_THEORY = SGP/SGP4

EPOCH          = 2025-12-28T14:00:01.999872
MEAN_MOTION    = 15.50539597
ECCENTRICITY   = .00011846
INCLINATION    = 43.0006
RA_OF_ASC_NODE = 26.9937
ARG_OF_PERICENTER = 278.3038
MEAN_ANOMALY   = 251.8599

EPHEMERIS_TYPE = 0
CLASSIFICATION_TYPE = U
NORAD_CAT_ID   = 66851
ELEMENT_SET_NO = 999
REV_AT_EPOCH   = 393
BSTAR          = .62975148E-3
MEAN_MOTION_DOT = .36724E-3
MEAN_MOTION_DDOT = 0

CCSDS_OMM_VERS = 2.0
CREATION_DATE  = 
ORIGINATOR     = 

OBJECT_NAME    = STARLINK-35992
OBJECT_ID      = 2025-281E
CENTER_NAME    = EARTH
REF_FRAME      = TEME
TIME_SYSTEM    = UTC
MEAN_ELEMENT_THEORY = SGP/SGP4

EPOCH          = 2025-12-28T14:00:01.999872
MEAN_MOTION    = 15.50551058
ECCENTRICITY   = .00005542
INCLINATION    = 43.0007
RA_OF_ASC_NODE = 26.9900
ARG_OF_PERICENTER = 287.2035
MEAN_ANOMALY   = 244.8797

EPHEMERIS_TYPE = 0
CLASSIFICATION_TYPE = U
NORAD_CAT_ID   = 66852
ELEMENT_SET_NO = 999
REV_AT_EPOCH   = 393
BSTAR          = .18905767E-3
MEAN_MOTION_DOT = .10754E-3
MEAN_MOTION_DDOT = 0

CCSDS_OMM_VERS = 2.0
CREATION_DATE  = 
ORIGINATOR     = 

OBJECT_NAME    = STARLINK-35986
OBJECT_ID      = 2025-281F
CENTER_NAME    = EARTH
REF_FRAME      = TEME
TIME_SYSTEM    = UTC
MEAN_ELEMENT_THEORY = SGP/SGP4

EPOCH          = 2025-12-28T14:00:01.999872
MEAN_MOTION    = 15.50555710
ECCENTRICITY   = .00006071
INCLINATION    = 43.0006
RA_OF_ASC_NODE = 26.9847
ARG_OF_PERICENTER = 284.6772
MEAN_ANOMALY   = 249.3190

EPHEMERIS_TYPE = 0
CLASSIFICATION_TYPE = U
NORAD_CAT_ID   = 66853
ELEMENT_SET_NO = 999
REV_AT_EPOCH   = 393
BSTAR          = .95124613E-4
MEAN_MOTION_DOT = .5238E-4
MEAN_MOTION_DDOT = 0

CCSDS_OMM_VERS = 2.0
CREATION_DATE  = 
ORIGINATOR     = 

OBJECT_NAME    = STARLINK-36087
OBJECT_ID      = 2025-281G
CENTER_NAME    = EARTH
REF_FRAME      = TEME
TIME_SYSTEM    = UTC
MEAN_ELEMENT_THEORY = SGP/SGP4

EPOCH          = 2025-12-28T14:00:01.999872
MEAN_MOTION    = 15.50545866
ECCENTRICITY   = .00005069
INCLINATION    = 43.0006
RA_OF_ASC_NODE = 26.9794
ARG_OF_PERICENTER = 277.2477
MEAN_ANOMALY   = 258.6725

EPHEMERIS_TYPE = 0
CLASSIFICATION_TYPE = U
NORAD_CAT_ID   = 66854
ELEMENT_SET_NO = 999
REV_AT_EPOCH   = 393
BSTAR          = .31637262E-3
MEAN_MOTION_DOT = .1824E-3
MEAN_MOTION_DDOT = 0

CCSDS_OMM_VERS = 2.0
CREATION_DATE  = 
ORIGINATOR     = 

OBJECT_NAME    = STARLINK-36090
OBJECT_ID      = 2025-281H
CENTER_NAME    = EARTH
REF_FRAME      = TEME
TIME_SYSTEM    = UTC
MEAN_ELEMENT_THEORY = SGP/SGP4

EPOCH          = 2025-12-28T14:00:01.999872
MEAN_MOTION    = 15.50539697
ECCENTRICITY   = .00006003
INCLINATION    = 43.0006
RA_OF_ASC_NODE = 26.9746
ARG_OF_PERICENTER = 350.6205
MEAN_ANOMALY   = 187.2358

EPHEMERIS_TYPE = 0
CLASSIFICATION_TYPE = U
NORAD_CAT_ID   = 66855
ELEMENT_SET_NO = 999
REV_AT_EPOCH   = 380
BSTAR          = .32730232E-3
MEAN_MOTION_DOT = .18879E-3
MEAN_MOTION_DDOT = 0

CCSDS_OMM_VERS = 2.0
CREATION_DATE  = 
ORIGINATOR     = 

OBJECT_NAME    = STARLINK-36072
OBJECT_ID      = 2025-281J
CENTER_NAME    = EARTH
REF_FRAME      = TEME
TIME_SYSTEM    = UTC
MEAN_ELEMENT_THEORY = SGP/SGP4

EPOCH          = 2025-12-28T14:00:01.999872
MEAN_MOTION    = 15.50770857
ECCENTRICITY   = .0001261
INCLINATION    = 43.0005
RA_OF_ASC_NODE = 26.9701
ARG_OF_PERICENTER = 272.3274
MEAN_ANOMALY   = 267.3845

EPHEMERIS_TYPE = 0
CLASSIFICATION_TYPE = U
NORAD_CAT_ID   = 66856
ELEMENT_SET_NO = 999
REV_AT_EPOCH   = 393
BSTAR          = -.43026768E-2
MEAN_MOTION_DOT = -.246651E-2
MEAN_MOTION_DDOT = 0

