STARLINK-36068          
1 66845U 25280AA  25362.51497721  .00109666  00000+0  17580-2 0  9990
2 66845  70.0006 155.1460 0006390 303.1513  56.9060 15.52548848  5382
STARLINK-36055          
1 66846U 25280AB  25362.58335648 -.02097355  00000+0 -47191-1 0  9992
2 66846  70.0011 154.9781 0003749 271.4611  92.9946 15.46642347  5445
STARLINK-36061          
1 66847U 25280AC  25362.58335648 -.02096627  00000+0 -45972-1 0  9999
2 66847  70.0005 154.9720 0003801 273.1650  96.4637 15.47381717  5395
STARLINK-36091          
1 66848U 25281A   25362.58335648  .00004725  00000+0  86379-4 0  9994
2 66848  43.0005  27.0087 0001277 276.7937 247.6196 15.50555314  3932
STARLINK-36102          
1 66849U 25281B   25362.58335648  .00011454  00000+0  20098-3 0  9997
2 66849  43.0006  27.0034 0001184 275.5989 250.7311 15.50550839  3938
STARLINK-36105          
1 66850U 25281C   25362.58335648  .00018626  00000+0  32292-3 0  9996
2 66850  43.0006  26.9988 0001207 277.4136 250.8359 15.50547417  3938
STARLINK-36094          
1 66851U 25281D   25362.58335648  .00036724  00000+0  62975-3 0  9997
2 66851  43.0006  26.9937 0001184 278.3038 251.8599 15.50539597  3935
STARLINK-35992          
1 66852U 25281E   25362.58335648  .00010754  00000+0  18906-3 0  9998
2 66852  43.0007  26.9900 0000554 287.2035 244.8797 15.50551058  3931
STARLINK-35986          
1 66853U 25281F   25362.58335648  .00005238  00000+0  95125-4 0  9999
2 66853  43.0006  26.9847 0000607 284.6772 249.3190 15.50555710  3935
STARLINK-36087          
1 66854U 25281G   25362.58335648  .00018240  00000+0  31637-3 0  9994
2 66854  43.0006  26.9794 0000506 277.2477 258.6725 15.50545866  3933
STARLINK-36090          
1 66855U 25281H   25362.58335648  .00018879  00000+0  32730-3 0  9998
2 66855  43.0006  26.9746 0000600 350.6205 187.2358 15.50539697  3801
STARLINK-36072          
1 66856U 25281J   25362.58335648 -.00246651  00000+0 -43027-2 0  9992
2 66856  43.0005  26.9701 0001261 272.3274 267.3845 15.50770857  3932
